{
  "type": "FeatureCollection",
  "features": [
    {
      "type": "Feature",
      "properties": {
        "norad_id": 40730,
        "name": "GPS BIIF-10 (PRN 08)",
        "group": "gps-ops",
        "lat": 36.14918342022044,
        "lon": -53.74181608114744,
        "alt_km": 19898.710799607437,
        "timestamp": "2025-12-21T18:54:58.755603+00:00",
        "meta_object_name": "GPS BIIF-10 (PRN 08)",
        "meta_object_id": "2015-033A",
        "meta_epoch": "2025-12-20T05:30:00.269856",
        "meta_mean_motion": 2.0056532,
        "meta_eccentricity": 0.01114012,
        "meta_inclination": 54.1241,
        "meta_ra_of_asc_node": 274.4647,
        "meta_arg_of_pericenter": 26.9904,
        "meta_mean_anomaly": 333.6219,
        "meta_ephemeris_type": 0,
        "meta_classification_type": "U",
        "meta_norad_cat_id": 40730,
        "meta_element_set_no": 999,
        "meta_rev_at_epoch": 7640,
        "meta_bstar": 0,
        "meta_mean_motion_dot": -1.9e-07,
        "meta_mean_motion_ddot": 0,
        "tle_line1": "1 40730U 15033A   25354.22916979 -.00000019  00000+0  00000+0 0  9999",
        "tle_line2": "2 40730  54.1241 274.4647 0111401  26.9904 333.6219  2.00565320 76402"
      },
      "geometry": {
        "type": "Point",
        "coordinates": [
          -53.74181608114744,
          36.14918342022044
        ]
      }
    },
    {
      "type": "Feature",
      "properties": {
        "norad_id": 41019,
        "name": "GPS BIIF-11 (PRN 10)",
        "group": "gps-ops",
        "lat": 2.3179945103364457,
        "lon": 39.188095569504384,
        "alt_km": 20380.012606912995,
        "timestamp": "2025-12-21T18:54:58.755614+00:00",
        "meta_object_name": "GPS BIIF-11 (PRN 10)",
        "meta_object_id": "2015-062A",
        "meta_epoch": "2025-12-20T06:55:31.863072",
        "meta_mean_motion": 2.00567218,
        "meta_eccentricity": 0.0111019,
        "meta_inclination": 56.8376,
        "meta_ra_of_asc_node": 37.7103,
        "meta_arg_of_pericenter": 230.1421,
        "meta_mean_anomaly": 128.9419,
        "meta_ephemeris_type": 0,
        "meta_classification_type": "U",
        "meta_norad_cat_id": 41019,
        "meta_element_set_no": 999,
        "meta_rev_at_epoch": 7424,
        "meta_bstar": 0,
        "meta_mean_motion_dot": -5.7e-07,
        "meta_mean_motion_ddot": 0,
        "tle_line1": "1 41019U 15062A   25354.28856323 -.00000057  00000+0  00000+0 0  9996",
        "tle_line2": "2 41019  56.8376  37.7103 0111019 230.1421 128.9419  2.00567218 74241"
      },
      "geometry": {
        "type": "Point",
        "coordinates": [
          39.188095569504384,
          2.3179945103364457
        ]
      }
    },
    {
      "type": "Feature",
      "properties": {
        "norad_id": 41328,
        "name": "GPS BIIF-12 (PRN 32)",
        "group": "gps-ops",
        "lat": -43.65363322348627,
        "lon": 55.4028518746352,
        "alt_km": 20060.65674055565,
        "timestamp": "2025-12-21T18:54:58.755625+00:00",
        "meta_object_name": "GPS BIIF-12 (PRN 32)",
        "meta_object_id": "2016-007A",
        "meta_epoch": "2025-12-21T08:50:32.363232",
        "meta_mean_motion": 2.00560305,
        "meta_eccentricity": 0.00925842,
        "meta_inclination": 55.4109,
        "meta_ra_of_asc_node": 96.5146,
        "meta_arg_of_pericenter": 243.788,
        "meta_mean_anomaly": 115.2562,
        "meta_ephemeris_type": 0,
        "meta_classification_type": "U",
        "meta_norad_cat_id": 41328,
        "meta_element_set_no": 999,
        "meta_rev_at_epoch": 7227,
        "meta_bstar": 0,
        "meta_mean_motion_dot": -8e-08,
        "meta_mean_motion_ddot": 0,
        "tle_line1": "1 41328U 16007A   25355.36843013 -.00000008  00000+0  00000+0 0  9997",
        "tle_line2": "2 41328  55.4109  96.5146 0092584 243.7880 115.2562  2.00560305 72276"
      },
      "geometry": {
        "type": "Point",
        "coordinates": [
          55.4028518746352,
          -43.65363322348627
        ]
      }
    },
    {
      "type": "Feature",
      "properties": {
        "norad_id": 43873,
        "name": "GPS BIII-1  (PRN 04)",
        "group": "gps-ops",
        "lat": -13.630050886888764,
        "lon": -71.24940867810564,
        "alt_km": 20085.178730717635,
        "timestamp": "2025-12-21T18:54:58.755636+00:00",
        "meta_object_name": "GPS BIII-1  (PRN 04)",
        "meta_object_id": "2018-109A",
        "meta_epoch": "2025-12-20T14:49:36.231744",
        "meta_mean_motion": 2.00553966,
        "meta_eccentricity": 0.0037575,
        "meta_inclination": 55.571,
        "meta_ra_of_asc_node": 99.2363,
        "meta_arg_of_pericenter": 195.36,
        "meta_mean_anomaly": 236.122,
        "meta_ephemeris_type": 0,
        "meta_classification_type": "U",
        "meta_norad_cat_id": 43873,
        "meta_element_set_no": 999,
        "meta_rev_at_epoch": 5149,
        "meta_bstar": 0,
        "meta_mean_motion_dot": -1.2e-07,
        "meta_mean_motion_ddot": 0,
        "tle_line1": "1 43873U 18109A   25354.61778046 -.00000012  00000+0  00000+0 0  9994",
        "tle_line2": "2 43873  55.5710  99.2363 0037575 195.3600 236.1220  2.00553966 51494"
      },
      "geometry": {
        "type": "Point",
        "coordinates": [
          -71.24940867810564,
          -13.630050886888764
        ]
      }
    },
    {
      "type": "Feature",
      "properties": {
        "norad_id": 44506,
        "name": "GPS BIII-2  (PRN 18)",
        "group": "gps-ops",
        "lat": 55.56975242443211,
        "lon": 73.96670719565854,
        "alt_km": 20215.068276874303,
        "timestamp": "2025-12-21T18:54:58.755647+00:00",
        "meta_object_name": "GPS BIII-2  (PRN 18)",
        "meta_object_id": "2019-056A",
        "meta_epoch": "2025-12-21T09:31:28.987392",
        "meta_mean_motion": 2.00566631,
        "meta_eccentricity": 0.00577334,
        "meta_inclination": 55.7184,
        "meta_ra_of_asc_node": 338.2094,
        "meta_arg_of_pericenter": 198.5612,
        "meta_mean_anomaly": 332.7674,
        "meta_ephemeris_type": 0,
        "meta_classification_type": "U",
        "meta_norad_cat_id": 44506,
        "meta_element_set_no": 999,
        "meta_rev_at_epoch": 4650,
        "meta_bstar": 0,
        "meta_mean_motion_dot": -7.2e-07,
        "meta_mean_motion_ddot": 0,
        "tle_line1": "1 44506U 19056A   25355.39686328 -.00000072  00000+0  00000+0 0  9993",
        "tle_line2": "2 44506  55.7184 338.2094 0057733 198.5612 332.7674  2.00566631 46503"
      },
      "geometry": {
        "type": "Point",
        "coordinates": [
          73.96670719565854,
          55.56975242443211
        ]
      }
    },
    {
      "type": "Feature",
      "properties": {
        "norad_id": 45854,
        "name": "GPS BIII-3  (PRN 23)",
        "group": "gps-ops",
        "lat": 30.576453955246738,
        "lon": 58.82864497302641,
        "alt_km": 20335.107259628574,
        "timestamp": "2025-12-21T18:54:58.755658+00:00",
        "meta_object_name": "GPS BIII-3  (PRN 23)",
        "meta_object_id": "2020-041A",
        "meta_epoch": "2025-12-20T05:44:36.632832",
        "meta_mean_motion": 2.00561934,
        "meta_eccentricity": 0.00606224,
        "meta_inclination": 56.5518,
        "meta_ra_of_asc_node": 35.8938,
        "meta_arg_of_pericenter": 203.675,
        "meta_mean_anomaly": 155.7759,
        "meta_ephemeris_type": 0,
        "meta_classification_type": "U",
        "meta_norad_cat_id": 45854,
        "meta_element_set_no": 999,
        "meta_rev_at_epoch": 4044,
        "meta_bstar": 0,
        "meta_mean_motion_dot": -5.8e-07,
        "meta_mean_motion_ddot": 0,
        "tle_line1": "1 45854U 20041A   25354.23931288 -.00000058  00000+0  00000+0 0  9990",
        "tle_line2": "2 45854  56.5518  35.8938 0060622 203.6750 155.7759  2.00561934 40444"
      },
      "geometry": {
        "type": "Point",
        "coordinates": [
          58.82864497302641,
          30.576453955246738
        ]
      }
    },
    {
      "type": "Feature",
      "properties": {
        "norad_id": 46826,
        "name": "GPS BIII-4  (PRN 14)",
        "group": "gps-ops",
        "lat": 7.364743097640021,
        "lon": -136.6234275474173,
        "alt_km": 20348.015783342595,
        "timestamp": "2025-12-21T18:54:58.755669+00:00",
        "meta_object_name": "GPS BIII-4  (PRN 14)",
        "meta_object_id": "2020-078A",
        "meta_epoch": "2025-12-16T01:06:13.902336",
        "meta_mean_motion": 2.00566891,
        "meta_eccentricity": 0.0064755,
        "meta_inclination": 54.0145,
        "meta_ra_of_asc_node": 218.2068,
        "meta_arg_of_pericenter": 203.3828,
        "meta_mean_anomaly": 339.3936,
        "meta_ephemeris_type": 0,
        "meta_classification_type": "U",
        "meta_norad_cat_id": 46826,
        "meta_element_set_no": 999,
        "meta_rev_at_epoch": 3783,
        "meta_bstar": 0,
        "meta_mean_motion_dot": 6.7e-07,
        "meta_mean_motion_ddot": 0,
        "tle_line1": "1 46826U 20078A   25350.04599424  .00000067  00000+0  00000+0 0  9996",
        "tle_line2": "2 46826  54.0145 218.2068 0064755 203.3828 339.3936  2.00566891 37831"
      },
      "geometry": {
        "type": "Point",
        "coordinates": [
          -136.6234275474173,
          7.364743097640021
        ]
      }
    }
  ]
}